IRIDIUM 116             
1 43072U 17083C   25075.74281294  .00000506  00000+0  17350-3 0  9990
2 43072  86.4019 153.2402 0001893  98.9970 261.1440 14.34214753378602
IRIDIUM 130             
1 43073U 17083D   25075.71109677  .00000652  00000+0  22588-3 0  9993
2 43073  86.4029 153.4840 0001994  91.9386 268.2038 14.34221753378540
IRIDIUM 151             
1 43074U 17083E   25075.75549724  .00000244  00000+0  80020-4 0  9992
2 43074  86.4022 153.2823 0002143 101.1790 258.9646 14.34213644378577
IRIDIUM 134             
1 43075U 17083F   25075.58424868  .00000268  00000+0  88819-4 0  9995
2 43075  86.4024 153.3553 0002014  91.7430 268.3996 14.34214597378518
IRIDIUM 137             
1 43076U 17083G   25075.73646740  .00000563  00000+0  19412-3 0  9998
2 43076  86.4026 153.3752 0001748 106.3602 253.7786 14.34213387378600
IRIDIUM 141             
1 43077U 17083H   25075.45106916  .00000702  00000+0  24357-3 0  9993
2 43077  86.4018 153.3514 0002534  95.9631 264.1854 14.34224916378564
IRIDIUM 153             
1 43078U 17083J   25075.61253932  .00000438  00000+0  14943-3 0  9999
2 43078  86.3950 121.7881 0002797  93.5847 266.5668 14.34215341379695
IRIDIUM 131             
1 43079U 17083K   25075.57789984  .00000678  00000+0  23492-3 0  9991
2 43079  86.4027 153.4540 0002332 101.7642 258.3815 14.34214092378511
